[{"OBJECT_NAME":"JILIN-1 GAOFEN 03D50","OBJECT_ID":"2022-167J","EPOCH":"2026-03-09T22:35:59.947584","MEAN_MOTION":15.32279726,"ECCENTRICITY":0.00065764,"INCLINATION":97.6731,"RA_OF_ASC_NODE":232.9458,"ARG_OF_PERICENTER":101.1473,"MEAN_ANOMALY":259.0507,"EPHEMERIS_TYPE":0,"CLASSIFICATION_TYPE":"U","NORAD_CAT_ID":54690,"ELEMENT_SET_NO":999,"REV_AT_EPOCH":18014,"BSTAR":0.00049467973,"MEAN_MOTION_DOT":0.00015359,"MEAN_MOTION_DDOT":0},{"OBJECT_NAME":"STARLINK-34906","OBJECT_ID":"2025-224Q","EPOCH":"2026-03-09T04:01:11.337312","MEAN_MOTION":15.30179574,"ECCENTRICITY":9.809e-5,"INCLINATION":53.1626,"RA_OF_ASC_NODE":13.8184,"ARG_OF_PERICENTER":109.5738,"MEAN_ANOMALY":250.5369,"EPHEMERIS_TYPE":0,"CLASSIFICATION_TYPE":"U","NORAD_CAT_ID":65896,"ELEMENT_SET_NO":999,"REV_AT_EPOCH":2479,"BSTAR":0.00078284323,"MEAN_MOTION_DOT":0.00022883,"MEAN_MOTION_DDOT":0}]
